[{"OBJECT_NAME":"LEMUR-2-KARENDARRELL","OBJECT_ID":"2025-135BU","EPOCH":"2026-03-09T21:08:31.963200","MEAN_MOTION":14.98475386,"ECCENTRICITY":0.00078103,"INCLINATION":97.7605,"RA_OF_ASC_NODE":185.4061,"ARG_OF_PERICENTER":183.1489,"MEAN_ANOMALY":176.9686,"EPHEMERIS_TYPE":0,"CLASSIFICATION_TYPE":"U","NORAD_CAT_ID":64841,"ELEMENT_SET_NO":999,"REV_AT_EPOCH":3913,"BSTAR":0.00091115502,"MEAN_MOTION_DOT":0.00010849,"MEAN_MOTION_DDOT":0},{"OBJECT_NAME":"STARLINK-36148","OBJECT_ID":"2025-293C","EPOCH":"2026-03-09T11:28:19.264800","MEAN_MOTION":14.9828441,"ECCENTRICITY":0.00029224,"INCLINATION":70.0007,"RA_OF_ASC_NODE":95.0917,"ARG_OF_PERICENTER":268.3794,"MEAN_ANOMALY":91.703,"EPHEMERIS_TYPE":0,"CLASSIFICATION_TYPE":"U","NORAD_CAT_ID":67005,"ELEMENT_SET_NO":999,"REV_AT_EPOCH":1485,"BSTAR":-0.00086095425,"MEAN_MOTION_DOT":-0.00010338,"MEAN_MOTION_DDOT":0}]
